#cP2023  1 15  0  0  0.00000000      96 ORBIT IGS20 HLM  IGS
## 2245      0.00000000   900.00000000 59959 0.0000000000000
+   31   G01G02G03G04G05G06G07G08G09G10G11G12G13G14G15G16G17
+        G18G19G20G21G22G23G24G25G26G27G29G30G31G32  0  0  0
+          0  0  0  0  0  0  0  0  0  0  0  0  0  0  0  0  0
+          0  0  0  0  0  0  0  0  0  0  0  0  0  0  0  0  0
+          0  0  0  0  0  0  0  0  0  0  0  0  0  0  0  0  0
++         2  2  2  2  2  2  2  2  2  2  2  2  2  2  2  2  2
++         2  2  2  2  2  2  2  2  2  2  2  2  2  2  0  0  0
++         0  0  0  0  0  0  0  0  0  0  0  0  0  0  0  0  0
++         0  0  0  0  0  0  0  0  0  0  0  0  0  0  0  0  0
++         0  0  0  0  0  0  0  0  0  0  0  0  0  0  0  0  0
%c G  cc GPS ccc cccc cccc cccc cccc ccccc ccccc ccccc ccccc
%c cc cc ccc ccc cccc cccc cccc cccc ccccc ccccc ccccc ccccc
%f  1.2500000  1.025000000  0.00000000000  0.000000000000000
%f  0.0000000  0.000000000  0.00000000000  0.000000000000000
%i    0    0    0    0      0      0      0      0         0
%i    0    0    0    0      0      0      0      0         0
/* RAPID ORBIT COMBINATION FROM WEIGHTED AVERAGE OF:        
/* cod emr esa gfz grg jpl ngs sio usn whu                  
/* REFERENCED TO IGS TIME (IGST) AND TO WEIGHTED MEAN POLE: 
/* PCV:IGS20_2233 OL/AL:FES2014b NONE     Y  ORB:CMB CLK:CMB
*  2023  1 15  3 45  0.00000000
PG01  22235.672829  14710.677768  -2499.079746    224.307256  5  5  5  85       
PG02 -23921.293618 -11252.607012    500.285352   -627.236762  6  8  5  75       
PG03  12316.307113  15204.313128  17891.690429   -372.078813  1  7  5 101       
PG04  18026.528999   5052.956334  18887.587122    -48.492526  5  7  4  92       
PG05  -5973.346920 -25052.630156  -6399.222968   -112.025649  6  3  4  73       
PG06   9983.766206 -11052.665496  22067.151908    558.616500  4  5  3  72       
PG07  23994.807467   4864.587010 -10452.476996    258.598436  4  5  7  75       
PG08   7861.254913  13055.426525 -21797.731715   -103.628246  5  7  4  94       
PG09  23459.406390  -5417.073435  11189.072122   -236.264126  2  5  2 102       
PG10 -11398.589856  16236.869787 -17332.029136    -20.455237  5  4  3  90       
PG11  -3315.994004 -17906.693746  19357.115162    -79.033541  4  5  6  71       
PG12 -10749.177143 -17225.734414  16900.784389   -328.228688  7  4  6  81       
PG13    977.953713 -16203.057210 -21161.951611    459.551673  8  6  6 111       
PG14  13381.183386 -13650.842273 -18383.769733    -49.131336  5  6  5 109       
PG15  -9921.725269 -12620.519970 -21608.481508      4.720423  7  8  5  74       
PG16    776.625996  26053.564866  -3847.370833   -523.805908  7  8  6 105       
PG17  22917.907532 -13430.075679   2027.655251    693.410840  7  8  6  58       
PG18 -22637.153478  -2250.240207 -13824.332376    -99.528205  8  6  4 109       
PG19  16865.933041 -16522.982418  11661.798540    264.260232  8  7  6  68       
PG20   -295.231996 -25977.188254   6086.239590    456.996601  5  8  5  85       
PG21  19013.890187  16034.866692  -9768.238216    153.451075  6  4  5 112       
PG22 -13126.076524  17960.356651  14808.618414    406.135189  4  6  3  89       
PG23 -14649.895878   4227.756912 -21732.582761      2.519391 10  6  8  78       
PG24 -21042.213371 -15152.883721  -7040.407669    -30.430669  7  4  5 101       
PG25 -14790.783620  -7214.568759  20594.529618    411.394532  6  4  4  87       
PG26  -5106.555003  24043.946046   9503.663955    240.309853  5  6  7 104       
PG27  -4102.913142  17904.822867 -19256.195159    126.797613  5  6  5  74       
PG29 -22899.500969   1386.639645  13404.907187   -580.453306  2  3  4  96       
PG30  17575.672839  -6078.477652 -18961.655033   -533.227481  6  5  2  93       
PG31  -8964.008910  12438.855499  21535.494863   -206.352956  5  7  4 110       
PG32 -20677.047855  16018.128297   4102.128320   -364.352733  6  6  4  96       
*  2023  1 15  4  0  0.00000000
PG01  21808.693109  14644.601987  -5344.267785    224.302853  5  5  5 104       
PG02 -23682.084639 -11426.674254   3370.473482   -627.234657  5  8  4 103       
PG03  12282.873250  17165.130968  16069.764981   -372.076969  3  6  5 102       
PG04  16167.514343   6287.396170  20148.001828    -48.485642  5  7  4 101       
PG05  -5780.179942 -25628.186785  -3606.207575   -112.027640  6  3  4  92       
PG06  12160.530762  -9882.542388  21529.314808    558.621900  5  4  4  71       
PG07  24858.871387   5574.328772  -7914.734912    258.592854  4  6  7  94       
PG08   5798.276405  14417.735484 -21549.760266   -103.628988  5  7  5 105       
PG09  22402.868175  -4436.527832  13521.922158   -236.258237  3  5  1  95       
PG10 -11643.536366  14132.601244 -18950.427579    -20.456904  5  4  3  91       
PG11  -1297.991203 -16847.448388  20511.571363    -79.041454  4  5  6  69       
PG12 -10546.414099 -19086.065811  14958.930557   -328.232965  7  5  7  82       
PG13   3126.582280 -17113.437263 -20190.299085    459.557414  8  6  6 103       
PG14  13554.505725 -11465.645160 -19712.300620    -49.124475  5  6  5 106       
PG15  -8094.666242 -14143.799617 -21396.967626      4.723091  7  8  5  84       
PG16    495.039714  26289.767990   -969.869162   -523.804801  6  8  5 107       
PG17  23034.612771 -13261.579133   -852.287887    693.413291  7  7  6  83       
PG18 -23825.989775  -3083.163318 -11479.057601    -99.541881  8  6  4 107       
PG19  18055.910872 -16885.029728   9111.513710    264.264561  8  7  5  77       
PG20    138.448434 -25210.820921   8729.453971    456.994460  4  8  4  86       
PG21  17730.536622  15702.672307 -12190.344710    153.451258  7  3  5 121       
PG22 -14549.127800  18497.817559  12569.018288    406.142129  4  7  4 118       
PG23 -14865.678624   1740.496559 -21939.208996      2.520472  9  6  8  92       
PG24 -20104.424553 -15059.568360  -9600.035168    -30.445707  7  4  5 114       
PG25 -14842.772462  -9573.842255  19611.394647    411.397610  6  4  5  75       
PG26  -5555.426522  22829.975887  11940.550054    240.310359  5  6  7  97       
PG27  -5926.282838  18922.880641 -17691.172377    126.789206  4  6  6  96       
PG29 -21513.312102    462.266846  15574.690593   -580.455254     3  5  86       
PG30  19362.487270  -4956.284784 -17522.586688   -533.226594  6  5  3  95       
PG31 -11137.394980  11243.582846  21219.093708   -206.353772  4  7  4 109       
PG32 -21070.091995  15950.521332   1259.277478   -364.363791  6  6  4  95       
*  2023  1 15  4 15  0.00000000
PG01  21094.246351  14471.102510  -8100.013363    224.298577  6  6  5  89       
PG02 -23150.722734 -11502.546282   6182.384322   -627.232582  5  8  4  83       
PG03  12332.898240  18901.894824  13970.288058   -372.075147  4  7  6  91       
PG04  14273.511500   7687.544447  21062.760515    -48.478698  5  7  5  92       
PG05  -5567.303388 -25896.942688   -750.846117   -112.029057  5  4  3  86       
PG06  14325.078580  -8871.301413  20623.846585    558.627406  5  4  4  84       
PG07  25489.306702   6115.068165  -5242.506158    258.587416  4  6  7  75       
PG08   3844.661106  15857.887311 -20931.338761   -103.631093  5  7  5  97       
PG09  21198.284567  -3249.853808  15621.546717   -236.252401  4  6  2  92       
PG10 -12019.498097  11880.635869 -20234.964712    -20.457997  5  4  4  97       
PG11    872.172420 -15846.187806  21313.681684    -79.049401  5  6  6  76       
PG12 -10434.282175 -20716.014228  12756.221338   -328.237078  7  6  7  84       
PG13   5112.141385 -18077.320409 -18874.774619    459.562956  7  5  6  75       
PG14  13846.797702  -9162.123234 -20700.420527    -49.117547  6  7  6  93       
PG15  -6372.286560 -15726.521330 -20830.867922      4.726505  7  8  6  75       
PG16    217.107962  26209.897810   1924.767406   -523.804015  6  8  6  99       
PG17  22888.402376 -12920.529289  -3717.570927    693.415726  6  7  6  77       
PG18 -24807.329541  -3733.989266  -8937.679365    -99.555612  7  6  4 109       
PG19  18962.992828 -17159.456483   6400.563222    264.269259  8  7  5  85       
PG20    687.900288 -24188.896938  11224.428749    456.991909  2  8  4  98       
PG21  16176.052140  15356.284475 -14404.400794    153.451425  7  3  5 116       
PG22 -15720.975123  18970.937483  10116.031353    406.149756  4  8  4 116       
PG23 -15215.247054   -732.121150 -21768.261470      2.521469  8  7  7  95       
PG24 -18904.085966 -14921.516524 -12000.463648    -30.460756  7  4  6  88       
PG25 -14998.886270 -11792.565727  18284.336882    411.400655  6  5  6  63       
PG26  -6105.499517  21377.297207  14167.143311    240.310886  4  5  7  99       
PG27  -7540.536733  19922.745725 -15822.205475    126.780774  4  5  6  81       
PG29 -19983.624338   -659.716525  17476.534737   -580.457027     3  5  92       
PG30  21036.524497  -3997.655390 -15782.652686   -533.225773  5  5  4  83       
PG31 -13312.925648  10186.819584  20533.878304   -206.354858  4  7  4 105       
PG32 -21206.770977  15708.250652  -1605.486204   -364.374953  6  6  4  92       
EOF
